NORAD_CAT_ID,OBJECT_NAME,OBJECT_TYPE,EPOCH,MEAN_MOTION,ECCENTRICITY,INCLINATION,RA_OF_ASC_NODE,ARG_OF_PERICENTER,MEAN_ANOMALY,BSTAR,MEAN_MOTION_DOT,MEAN_MOTION_DDOT,TLE_LINE0,TLE_LINE1,TLE_LINE2,SEMIMAJOR_AXIS,PERIOD,APOGEE,PERIGEE,DECAYED
51980.0,STARLINK-3649,PAYLOAD,2024-03-06 10:55:55,15.08847967,0.0001621,53.2157,90.738,100.7435,259.374,0.00081582,0.00012722,0.0,0 STARLINK-3649,1 51980U 22025AA  24066.45549972  .00012722  00000-0  81582-3 0  9998,2 51980  53.2157  90.7380 0001621 100.7435 259.3740 15.08847967110361,6917.856,95.437,540.842,538.6,0.0
51980.0,STARLINK-3649,PAYLOAD,2024-03-06 18:52:50,15.08843867,0.0001622,53.2159,89.2474,104.6638,255.4534,0.00035134,5.309e-05,0.0,0 STARLINK-3649,1 51980U 22025AA  24066.78669964  .00005309  00000-0  35134-3 0  9993,2 51980  53.2159  89.2474 0001622 104.6638 255.4534 15.08843867111509,6917.869,95.437,540.856,538.611,0.0
51980.0,STARLINK-3649,PAYLOAD,2024-03-07 10:46:42,15.08849438,0.0001643,53.2159,86.2738,103.656,256.4615,0.00035732,5.405e-05,0.0,0 STARLINK-3649,1 51980U 22025AA  24067.44909754  .00005405  00000-0  35732-3 0  9992,2 51980  53.2159  86.2738 0001643 103.6560 256.4615 15.08849438110516,6917.852,95.437,540.853,538.58,0.0
51980.0,STARLINK-3649,PAYLOAD,2024-03-08 04:15:56,15.08841794,0.0001721,53.2163,83.0017,103.0381,257.0803,0.00013454,1.854e-05,0.0,0 STARLINK-3649,1 51980U 22025AA  24068.17773906  .00001854  00000-0  13454-3 0  9992,2 51980  53.2163  83.0017 0001721 103.0381 257.0803 15.08841794111714,6917.875,95.437,540.93,538.549,0.0
51980.0,STARLINK-3649,PAYLOAD,2024-03-08 10:37:29,15.08847744,0.0001786,53.2172,81.8133,98.1261,261.9934,1.2658e-05,-8.7e-07,0.0,0 STARLINK-3649,1 51980U 22025AA  24068.44269723 -.00000087  00000-0  12658-4 0  9993,2 51980  53.2172  81.8133 0001786  98.1261 261.9934 15.08847744110664,6917.857,95.437,540.957,538.486,0.0
51980.0,STARLINK-3649,PAYLOAD,2024-03-09 10:28:15,15.08846774,0.0001701,53.2177,77.354,95.5941,264.5245,9.264e-05,1.187e-05,0.0,0 STARLINK-3649,1 51980U 22025AA  24069.43629544  .00001187  00000-0  92640-4 0  9994,2 51980  53.2177  77.3540 0001701  95.5941 264.5245 15.08846774111908,6917.86,95.437,540.901,538.548,0.0
51980.0,STARLINK-3649,PAYLOAD,2024-03-10 03:57:30,15.08841327,0.0001527,53.2166,74.0826,96.5533,263.5633,3.8938e-05,3.32e-06,0.0,0 STARLINK-3649,1 51980U 22025AA  24070.16493940  .00000332  00000-0  38938-4 0  9996,2 51980  53.2166  74.0826 0001527  96.5533 263.5633 15.08841327112013,6917.876,95.437,540.798,538.685,0.0
51980.0,STARLINK-3649,PAYLOAD,2024-03-10 07:08:16,15.08843103,0.0001455,53.2172,73.4892,89.0801,271.0358,7.5183e-05,9.09e-06,0.0,0 STARLINK-3649,1 51980U 22025AA  24070.29741736  .00000909  00000-0  75183-4 0  9992,2 51980  53.2172  73.4892 0001455  89.0801 271.0358 15.08843103110943,6917.871,95.437,540.742,538.729,0.0
51980.0,STARLINK-3649,PAYLOAD,2024-03-10 16:40:35,15.08840881,0.0001465,53.2171,71.705,87.8081,272.3079,5.2694e-05,5.51e-06,0.0,0 STARLINK-3649,1 51980U 22025AA  24070.69485890  .00000551  00000-0  52694-4 0  9997,2 51980  53.2171  71.7050 0001465  87.8081 272.3079 15.08840881111008,6917.878,95.437,540.756,538.729,0.0
51980.0,STARLINK-3649,PAYLOAD,2024-03-11 06:59:04,15.08837152,0.0001622,53.2184,69.0334,99.6064,260.5111,-2.5778e-06,-3.29e-06,0.0,0 STARLINK-3649,1 51980U 22025AA  24071.29102453 -.00000329  00000-0 -25778-5 0  9994,2 51980  53.2184  69.0334 0001622  99.6064 260.5111 15.08837152112187,6917.889,95.438,540.876,538.632,0.0
51980.0,STARLINK-3649,PAYLOAD,2024-03-12 08:25:14,15.0884509,0.0001748,53.218,64.275,103.8014,256.3172,-3.4597e-05,-8.39e-06,0.0,0 STARLINK-3649,1 51980U 22025AA  24072.35086185 -.00000839  00000-0 -34597-4 0  9999,2 51980  53.2180  64.2750 0001748 103.8014 256.3172 15.08845090112342,6917.865,95.437,540.939,538.521,0.0
51980.0,STARLINK-3649,PAYLOAD,2024-03-12 16:22:10,15.08842631,0.000142,53.2173,62.7871,97.9453,262.17,9.5902e-05,1.239e-05,0.0,0 STARLINK-3649,1 51980U 22025AA  24072.68206038  .00001239  00000-0  95902-4 0  9996,2 51980  53.2173  62.7871 0001420  97.9453 262.1700 15.08842631111303,6917.872,95.437,540.72,538.755,0.0
51980.0,STARLINK-3649,PAYLOAD,2024-03-13 08:16:00,15.08856441,0.0001401,53.2168,59.8123,98.4799,261.6352,0.00023802,3.504e-05,0.0,0 STARLINK-3649,1 51980U 22025AA  24073.34444751  .00003504  00000-0  23802-3 0  9992,2 51980  53.2168  59.8123 0001401  98.4799 261.6352 15.08856441112494,6917.83,95.437,540.664,538.726,0.0
51980.0,STARLINK-3649,PAYLOAD,2024-03-13 22:34:29,15.08837078,0.0001547,53.2161,57.1343,97.4222,262.6946,7.1751e-06,-1.74e-06,0.0,0 STARLINK-3649,1 51980U 22025AA  24073.94062147 -.00000174  00000-0  71751-5 0  9992,2 51980  53.2161  57.1343 0001547  97.4222 262.6946 15.08837078111497,6917.889,95.438,540.825,538.684,0.0
51980.0,STARLINK-3649,PAYLOAD,2024-03-14 04:56:02,15.08837752,0.0001504,53.2169,55.9436,99.9185,260.1977,2.3535e-05,8.7e-07,0.0,0 STARLINK-3649,1 51980U 22025AA  24074.20558252  .00000087  00000-0  23535-4 0  9997,2 51980  53.2169  55.9436 0001504  99.9185 260.1977 15.08837752112624,6917.887,95.438,540.793,538.712,0.0
51980.0,STARLINK-3649,PAYLOAD,2024-03-14 06:31:25,15.08837854,0.0001434,53.2166,55.6459,106.3698,253.7452,1.3406e-05,-7.5e-07,0.0,0 STARLINK-3649,1 51980U 22025AA  24074.27182210 -.00000075  00000-0  13406-4 0  9995,2 51980  53.2166  55.6459 0001434 106.3698 253.7452 15.08837854111546,6917.887,95.438,540.744,538.76,0.0
51980.0,STARLINK-3649,PAYLOAD,2024-03-14 22:25:16,15.08839428,0.0001467,53.2174,52.673,102.7161,257.3995,-3.7753e-06,-3.48e-06,0.0,0 STARLINK-3649,1 51980U 22025AA  24074.93422348 -.00000348  00000-0 -37753-5 0  9993,2 51980  53.2174  52.6730 0001467 102.7161 257.3995 15.08839428111647,6917.882,95.438,540.762,538.732,0.0
51980.0,STARLINK-3649,PAYLOAD,2024-03-15 07:57:35,15.08846989,0.0001598,53.2171,50.8895,104.4963,255.6206,0.00027586,4.106e-05,0.0,0 STARLINK-3649,1 51980U 22025AA  24075.33166122  .00004106  00000-0  27586-3 0  9998,2 51980  53.2171  50.8895 0001598 104.4963 255.6206 15.08846989112793,6917.859,95.437,540.83,538.619,0.0
51980.0,STARLINK-3649,PAYLOAD,2024-03-16 04:37:36,15.08838366,0.0001623,53.2179,47.0229,101.5628,258.5547,0.00012928,1.77e-05,0.0,0 STARLINK-3649,1 51980U 22025AA  24076.19278689  .00001770  00000-0  12928-3 0  9993,2 51980  53.2179  47.0229 0001623 101.5628 258.5547 15.08838366112920,6917.885,95.438,540.873,538.628,0.0
51980.0,STARLINK-3649,PAYLOAD,2024-03-16 22:06:51,15.08824341,0.0001722,53.2187,43.7483,110.5866,249.5311,0.0004142,6.307e-05,0.0,0 STARLINK-3649,1 51980U 22025AA  24076.92143439  .00006307  00000-0  41420-3 0  9998,2 51980  53.2187  43.7483 0001722 110.5866 249.5311 15.08824341111946,6917.928,95.439,540.985,538.602,0.0
51980.0,STARLINK-3649,PAYLOAD,2024-03-17 04:28:23,15.08840454,0.0001711,53.2193,42.5628,110.0831,250.0346,1.1934e-05,-9.8e-07,0.0,0 STARLINK-3649,1 51980U 22025AA  24077.18638770 -.00000098  00000-0  11934-4 0  9994,2 51980  53.2193  42.5628 0001711 110.0831 250.0346 15.08840454111988,6917.879,95.438,540.928,538.56,0.0
51980.0,STARLINK-3649,PAYLOAD,2024-03-17 21:57:38,15.08839711,0.0001589,53.2195,39.2948,104.9031,255.2138,8.7145e-05,1.099e-05,0.0,0 STARLINK-3649,1 51980U 22025AA  24077.91502709  .00001099  00000-0  87145-4 0  9995,2 51980  53.2195  39.2948 0001589 104.9031 255.2138 15.08839711112098,6917.881,95.438,540.846,538.647,0.0
51980.0,STARLINK-3649,PAYLOAD,2024-03-18 04:19:10,15.08846248,0.0001647,53.2196,38.1068,107.5524,252.5648,0.00013845,1.916e-05,0.0,0 STARLINK-3649,1 51980U 22025AA  24078.17998158  .00001916  00000-0  13845-3 0  9994,2 51980  53.2196  38.1068 0001647 107.5524 252.5648 15.08846248113226,6917.861,95.437,540.866,538.587,0.0
51980.0,STARLINK-3649,PAYLOAD,2024-03-19 02:34:34,15.08838654,0.0001698,53.2196,33.943,113.6866,246.4304,6.7278e-05,7.83e-06,0.0,0 STARLINK-3649,1 51980U 22025AA  24079.10734778  .00000783  00000-0  67278-4 0  9995,2 51980  53.2196  33.9430 0001698 113.6866 246.4304 15.08838654113363,6917.885,95.438,540.924,538.575,0.0
51980.0,STARLINK-3649,PAYLOAD,2024-03-19 07:20:43,15.08844354,0.0001582,53.219,33.0452,113.4879,246.628,9.1687e-05,1.172e-05,0.0,0 STARLINK-3649,1 51980U 22025AA  24079.30606334  .00001172  00000-0  91687-4 0  9997,2 51980  53.2190  33.0452 0001582 113.4879 246.6280 15.08844354112308,6917.867,95.437,540.826,538.638,0.0
51980.0,STARLINK-3649,PAYLOAD,2024-03-20 00:49:57,15.08852898,0.0001752,53.2198,29.7748,118.9099,241.2069,5.2116e-05,5.42e-06,0.0,0 STARLINK-3649,1 51980U 22025AA  24080.03469688  .00000542  00000-0  52116-4 0  9992,2 51980  53.2198  29.7748 0001752 118.9099 241.2069 15.08852898113500,6917.841,95.437,540.918,538.494,0.0
51980.0,STARLINK-3649,PAYLOAD,2024-03-20 05:36:06,15.08866689,0.0002101,53.2203,28.882,118.5635,241.5569,1.5231e-05,-4.6e-07,0.0,0 STARLINK-3649,1 51980U 22025AA  24080.23340738 -.00000046  00000-0  15231-4 0  9995,2 51980  53.2203  28.8820 0002101 118.5635 241.5569 15.08866689113533,6917.799,95.436,541.117,538.21,0.0
51980.0,STARLINK-3649,PAYLOAD,2024-03-21 03:51:32,15.08834118,0.0001387,53.2184,24.7175,83.4155,276.6995,-4.2372e-05,-9.62e-06,0.0,0 STARLINK-3649,1 51980U 22025AA  24081.16078775 -.00000962  00000-0 -42372-4 0  9991,2 51980  53.2184  24.7175 0001387  83.4155 276.6995 15.08834118113670,6917.898,95.438,540.723,538.804,0.0
51980.0,STARLINK-3649,PAYLOAD,2024-03-21 13:23:50,15.08831352,0.0001318,53.2172,22.9353,120.3863,239.7259,-1.6781e-06,-3.15e-06,0.0,0 STARLINK-3649,1 51980U 22025AA  24081.55822788 -.00000315  00000-0 -16781-5 0  9993,2 51980  53.2172  22.9353 0001318 120.3863 239.7259 15.08831352112642,6917.907,95.438,540.684,538.86,0.0
51980.0,STARLINK-3649,PAYLOAD,2024-03-22 02:06:55,15.08848311,0.0001564,53.2177,20.5568,103.496,256.6206,0.00028791,4.298e-05,0.0,0 STARLINK-3649,1 51980U 22025AA  24082.08814208  .00004298  00000-0  28791-3 0  9994,2 51980  53.2177  20.5568 0001564 103.4960 256.6206 15.08848311113815,6917.855,95.437,540.802,538.638,0.0
